HIMAWARI-8              
1 40267U 14060A   24014.58961992 -.00000271  00000+0  00000+0 0  9999
2 40267   0.0023  97.7527 0000885 188.4760 180.2298  1.00271759 33893
